{
  "norad_id": 68203,
  "name": "2026-052F",
  "history": [
    {
      "epoch": "2026-03-28T22:28:02.229888Z",
      "apogee_km": 541.0740480395098,
      "perigee_km": 527.1893738798044,
      "latitude_deg": 1.680738704815026e-05,
      "longitude_deg": 0.6392719955404376,
      "height_km": 542.991552852863,
      "semi_major_axis_km": 6912.268710959656,
      "eccentricity": 0.00100435,
      "inclination_deg": 97.5368,
      "raan_deg": 163.998,
      "arg_perigee_deg": 213.6575,
      "mean_anomaly_deg": 146.4018,
      "mean_motion_rev_day": 15.10677785
    },
    {
      "epoch": "2026-03-29T04:49:33.826944Z",
      "apogee_km": 541.0667183803289,
      "perigee_km": 527.1689388219429,
      "latitude_deg": -3.762936228832824e-05,
      "longitude_deg": -94.74292085475658,
      "height_km": 543.0466503120535,
      "semi_major_axis_km": 6912.254828601135,
      "eccentricity": 0.0010053,
      "inclination_deg": 97.5367,
      "raan_deg": 164.2586,
      "arg_perigee_deg": 212.6993,
      "mean_anomaly_deg": 147.3615,
      "mean_motion_rev_day": 15.10682336
    },
    {
      "epoch": "2026-03-30T04:40:16.468320Z",
      "apogee_km": 541.053033798029,
      "perigee_km": 527.047559897157,
      "latitude_deg": -9.411337338246204e-06,
      "longitude_deg": -92.42118300650102,
      "height_km": 543.2662502053006,
      "semi_major_axis_km": 6912.187296847593,
      "eccentricity": 0.0010131,
      "inclination_deg": 97.5359,
      "raan_deg": 165.2373,
      "arg_perigee_deg": 208.8254,
      "mean_anomaly_deg": 151.2417,
      "mean_motion_rev_day": 15.10704475
    },
    {
      "epoch": "2026-03-30T06:15:39.276864Z",
      "apogee_km": 541.0618559473714,
      "perigee_km": 527.0355105152457,
      "latitude_deg": -2.2352338911025358e-05,
      "longitude_deg": -116.26620221506406,
      "height_km": 543.290117657923,
      "semi_major_axis_km": 6912.185683231309,
      "eccentricity": 0.00101461,
      "inclination_deg": 97.5358,
      "raan_deg": 165.3026,
      "arg_perigee_deg": 208.547,
      "mean_anomaly_deg": 151.5205,
      "mean_motion_rev_day": 15.10705004
    },
    {
      "epoch": "2026-03-30T14:12:33.230592Z",
      "apogee_km": 541.0682556677848,
      "perigee_km": 526.9892799452855,
      "latitude_deg": 8.588484067778422e-05,
      "longitude_deg": 124.50945080398922,
      "height_km": 543.3634475699682,
      "semi_major_axis_km": 6912.165767806535,
      "eccentricity": 0.00101842,
      "inclination_deg": 97.5362,
      "raan_deg": 165.6295,
      "arg_perigee_deg": 207.3263,
      "mean_anomaly_deg": 152.7433,
      "mean_motion_rev_day": 15.10711533
    },
    {
      "epoch": "2026-03-30T22:09:27.059040Z",
      "apogee_km": 541.082658160638,
      "perigee_km": 526.9365354215088,
      "latitude_deg": 1.1981890240313407e-05,
      "longitude_deg": 5.285551216184584,
      "height_km": 543.4415747325714,
      "semi_major_axis_km": 6912.146596791073,
      "eccentricity": 0.00102328,
      "inclination_deg": 97.5366,
      "raan_deg": 165.9563,
      "arg_perigee_deg": 206.1084,
      "mean_anomaly_deg": 153.9631,
      "mean_motion_rev_day": 15.10717818
    },
    {
      "epoch": "2026-03-31T20:24:45.259776Z",
      "apogee_km": 541.1049547298826,
      "perigee_km": 526.8190285339779,
      "latitude_deg": 5.750345580624602e-05,
      "longitude_deg": 31.45872744675372,
      "height_km": 543.6049153956666,
      "semi_major_axis_km": 6912.0989916319295,
      "eccentricity": 0.0010334,
      "inclination_deg": 97.5361,
      "raan_deg": 166.8693,
      "arg_perigee_deg": 203.2561,
      "mean_anomaly_deg": 156.8203,
      "mean_motion_rev_day": 15.10733425
    },
    {
      "epoch": "2026-04-01T20:15:25.324704Z",
      "apogee_km": 541.125485060742,
      "perigee_km": 526.7152278839676,
      "latitude_deg": 5.1115298037812536e-05,
      "longitude_deg": 33.79023506076327,
      "height_km": 543.7508576139542,
      "semi_major_axis_km": 6912.0573564723545,
      "eccentricity": 0.0010424,
      "inclination_deg": 97.5354,
      "raan_deg": 167.847,
      "arg_perigee_deg": 200.4623,
      "mean_anomaly_deg": 159.6191,
      "mean_motion_rev_day": 15.10747075
    },
    {
      "epoch": "2026-04-02T20:06:04.339008Z",
      "apogee_km": 541.1459348954922,
      "perigee_km": 526.5574915173984,
      "latitude_deg": -4.540057140699003e-05,
      "longitude_deg": 36.1264436428818,
      "height_km": 543.8896897650541,
      "semi_major_axis_km": 6911.988713206445,
      "eccentricity": 0.0010553,
      "inclination_deg": 97.5354,
      "raan_deg": 168.825,
      "arg_perigee_deg": 197.4541,
      "mean_anomaly_deg": 162.6327,
      "mean_motion_rev_day": 15.1076958
    },
    {
      "epoch": "2026-04-02T23:16:49.386720Z",
      "apogee_km": 541.1496004415503,
      "perigee_km": 526.5064642811922,
      "latitude_deg": -2.8623045983007793e-06,
      "longitude_deg": -11.560724940727804,
      "height_km": 543.9178327503577,
      "semi_major_axis_km": 6911.965032361371,
      "eccentricity": 0.00105926,
      "inclination_deg": 97.5351,
      "raan_deg": 168.9561,
      "arg_perigee_deg": 196.7672,
      "mean_anomaly_deg": 163.3209,
      "mean_motion_rev_day": 15.10777344
    },
    {
      "epoch": "2026-04-03T21:32:04.185024Z",
      "apogee_km": 541.1205123868031,
      "perigee_km": 526.3760786743769,
      "latitude_deg": -2.0306418114851866e-05,
      "longitude_deg": 14.626173859026103,
      "height_km": 543.9829841225699,
      "semi_major_axis_km": 6911.88529553059,
      "eccentricity": 0.0010666,
      "inclination_deg": 97.5347,
      "raan_deg": 169.8686,
      "arg_perigee_deg": 193.9226,
      "mean_anomaly_deg": 166.1711,
      "mean_motion_rev_day": 15.10803487
    },
    {
      "epoch": "2026-04-04T21:22:40.041408Z",
      "apogee_km": 541.0208548534292,
      "perigee_km": 526.3470589619128,
      "latitude_deg": 1.2591676910856684e-05,
      "longitude_deg": 16.976657810215748,
      "height_km": 543.9731988530108,
      "semi_major_axis_km": 6911.820956907671,
      "eccentricity": 0.0010615,
      "inclination_deg": 97.5349,
      "raan_deg": 170.8477,
      "arg_perigee_deg": 190.6352,
      "mean_anomaly_deg": 169.4655,
      "mean_motion_rev_day": 15.10824582
    },
    {
      "epoch": "2026-04-05T14:51:45.546624Z",
      "apogee_km": 541.0573188470826,
      "perigee_km": 526.2151152762299,
      "latitude_deg": -1.574387254796681e-05,
      "longitude_deg": 114.70424413515248,
      "height_km": 544.0686266886728,
      "semi_major_axis_km": 6911.773217061656,
      "eccentricity": 0.00107369,
      "inclination_deg": 97.5351,
      "raan_deg": 171.5663,
      "arg_perigee_deg": 187.6739,
      "mean_anomaly_deg": 172.4328,
      "mean_motion_rev_day": 15.10840235
    },
    {
      "epoch": "2026-04-05T21:13:14.690784Z",
      "apogee_km": 541.0657017000367,
      "perigee_km": 526.1763925149562,
      "latitude_deg": 7.132994005738546e-05,
      "longitude_deg": 19.331980498659128,
      "height_km": 544.0936651289044,
      "semi_major_axis_km": 6911.758047107496,
      "eccentricity": 0.0010771,
      "inclination_deg": 97.5347,
      "raan_deg": 171.8266,
      "arg_perigee_deg": 186.6158,
      "mean_anomaly_deg": 173.4932,
      "mean_motion_rev_day": 15.10845209
    },
    {
      "epoch": "2026-04-06T06:45:28.290816Z",
      "apogee_km": 541.0757950577854,
      "perigee_km": 526.1276394991528,
      "latitude_deg": 3.755890090912086e-05,
      "longitude_deg": -123.7253580013856,
      "height_km": 544.1219201097064,
      "semi_major_axis_km": 6911.738717278469,
      "eccentricity": 0.00108136,
      "inclination_deg": 97.535,
      "raan_deg": 172.2176,
      "arg_perigee_deg": 185.2275,
      "mean_anomaly_deg": 174.8844,
      "mean_motion_rev_day": 15.10851547
    },
    {
      "epoch": "2026-04-07T20:54:21.323232Z",
      "apogee_km": 541.100905296451,
      "perigee_km": 525.9684912802195,
      "latitude_deg": -2.585231500453929e-05,
      "longitude_deg": 24.052692261687323,
      "height_km": 544.17591761331,
      "semi_major_axis_km": 6911.671698288335,
      "eccentricity": 0.0010947,
      "inclination_deg": 97.5347,
      "raan_deg": 173.7833,
      "arg_perigee_deg": 179.2423,
      "mean_anomaly_deg": 180.8825,
      "mean_motion_rev_day": 15.10873522
    },
    {
      "epoch": "2026-04-08T15:58:47.114112Z",
      "apogee_km": 541.1125211350391,
      "perigee_km": 525.9035844292939,
      "latitude_deg": 7.401576416501226e-05,
      "longitude_deg": 97.94548029411128,
      "height_km": 544.1733697899609,
      "semi_major_axis_km": 6911.645052782166,
      "eccentricity": 0.00110024,
      "inclination_deg": 97.5348,
      "raan_deg": 174.5669,
      "arg_perigee_deg": 176.5202,
      "mean_anomaly_deg": 183.6107,
      "mean_motion_rev_day": 15.10882259
    },
    {
      "epoch": "2026-04-09T20:35:25.025856Z",
      "apogee_km": 541.1526370626334,
      "perigee_km": 525.7743259912359,
      "latitude_deg": 7.88948912334729e-06,
      "longitude_deg": 28.7864271071617,
      "height_km": 544.1662764611252,
      "semi_major_axis_km": 6911.600481526934,
      "eccentricity": 0.0011125,
      "inclination_deg": 97.5341,
      "raan_deg": 175.7408,
      "arg_perigee_deg": 172.8307,
      "mean_anomaly_deg": 187.3084,
      "mean_motion_rev_day": 15.10896874
    },
    {
      "epoch": "2026-04-10T12:29:05.650656Z",
      "apogee_km": 541.189298728923,
      "perigee_km": 525.683874544663,
      "latitude_deg": 1.6185073469079224e-05,
      "longitude_deg": 150.3665855955721,
      "height_km": 544.1601898780958,
      "semi_major_axis_km": 6911.573586636793,
      "eccentricity": 0.0011217,
      "inclination_deg": 97.5343,
      "raan_deg": 176.393,
      "arg_perigee_deg": 170.6889,
      "mean_anomaly_deg": 189.4551,
      "mean_motion_rev_day": 15.10905693
    }
  ]
}